[{"OBJECT_NAME":"STARLINK-1788","OBJECT_ID":"2020-073V","EPOCH":"2026-03-10T00:00:02.999808","MEAN_MOTION":15.62536855,"ECCENTRICITY":6.992e-5,"INCLINATION":53.0425,"RA_OF_ASC_NODE":216.993,"ARG_OF_PERICENTER":36.5183,"MEAN_ANOMALY":237.1279,"EPHEMERIS_TYPE":0,"CLASSIFICATION_TYPE":"U","NORAD_CAT_ID":46689,"ELEMENT_SET_NO":999,"REV_AT_EPOCH":593,"BSTAR":0.0017040021,"MEAN_MOTION_DOT":0.00157208,"MEAN_MOTION_DDOT":0},{"OBJECT_NAME":"STARLINK-3083","OBJECT_ID":"2021-082AE","EPOCH":"2026-03-09T16:37:39.607392","MEAN_MOTION":15.64475884,"ECCENTRICITY":0.00051971,"INCLINATION":69.9688,"RA_OF_ASC_NODE":173.5767,"ARG_OF_PERICENTER":238.8538,"MEAN_ANOMALY":121.2146,"EPHEMERIS_TYPE":0,"CLASSIFICATION_TYPE":"U","NORAD_CAT_ID":49158,"ELEMENT_SET_NO":999,"REV_AT_EPOCH":25005,"BSTAR":0.00056497056,"MEAN_MOTION_DOT":0.00054695,"MEAN_MOTION_DDOT":0}]
